NORAD_CAT_ID,OBJECT_NAME,OBJECT_TYPE,EPOCH,MEAN_MOTION,ECCENTRICITY,INCLINATION,RA_OF_ASC_NODE,ARG_OF_PERICENTER,MEAN_ANOMALY,BSTAR,MEAN_MOTION_DOT,MEAN_MOTION_DDOT,TLE_LINE0,TLE_LINE1,TLE_LINE2,SEMIMAJOR_AXIS,PERIOD,APOGEE,PERIGEE,DECAYED
51752.0,STARLINK-3511,PAYLOAD,2024-03-26 05:15:20,15.08837156,0.0001222,53.2167,271.9469,95.0923,265.0209,9.3435e-05,1.199e-05,0.0,0 STARLINK-3511,1 51752U 22016AQ  24086.21898848  .00001199  00000-0  93435-4 0  9997,2 51752  53.2167 271.9469 0001222  95.0923 265.0209 15.08837156117118,6917.889,95.438,540.599,538.909,0.0
51752.0,STARLINK-3511,PAYLOAD,2024-03-26 19:33:49,15.08831297,0.0001508,53.2182,269.2684,85.1492,274.9673,-5.6549e-06,-3.78e-06,0.0,0 STARLINK-3511,1 51752U 22016AQ  24086.81515862 -.00000378  00000-0 -56549-5 0  9991,2 51752  53.2182 269.2684 0001508  85.1492 274.9673 15.08831297117206,6917.907,95.438,540.815,538.729,0.0
51752.0,STARLINK-3511,PAYLOAD,2024-03-27 11:27:41,15.08831944,0.0001603,53.2179,266.2953,90.0981,270.0195,0.00016258,2.3e-05,0.0,0 STARLINK-3511,1 51752U 22016AQ  24087.47755801  .00002300  00000-0  16258-3 0  9999,2 51752  53.2179 266.2953 0001603  90.0981 270.0195 15.08831944116183,6917.905,95.438,540.879,538.661,0.0
51752.0,STARLINK-3511,PAYLOAD,2024-03-27 19:24:36,15.0884609,0.0001314,53.2168,264.8111,93.4187,266.6955,8.6964e-05,1.097e-05,0.0,0 STARLINK-3511,1 51752U 22016AQ  24087.80875150  .00001097  00000-0  86964-4 0  9990,2 51752  53.2168 264.8111 0001314  93.4187 266.6955 15.08846090117358,6917.862,95.437,540.636,538.818,0.0
51752.0,STARLINK-3511,PAYLOAD,2024-03-27 20:59:58,15.08851611,0.00014,53.2172,264.5129,90.9595,269.1558,0.00011662,1.569e-05,0.0,0 STARLINK-3511,1 51752U 22016AQ  24087.87498752  .00001569  00000-0  11662-3 0  9992,2 51752  53.2172 264.5129 0001400  90.9595 269.1558 15.08851611116249,6917.845,95.437,540.678,538.741,0.0
51752.0,STARLINK-3511,PAYLOAD,2024-03-28 11:18:27,15.08839362,0.0001436,53.216,261.8353,89.5105,270.6052,0.00019183,2.766e-05,0.0,0 STARLINK-3511,1 51752U 22016AQ  24088.47115386  .00002766  00000-0  19183-3 0  9994,2 51752  53.2160 261.8353 0001436  89.5105 270.6052 15.08839362117454,6917.882,95.438,540.741,538.754,0.0
51752.0,STARLINK-3511,PAYLOAD,2024-03-29 20:41:32,15.08850759,0.0001243,53.2154,255.5906,84.9754,275.138,6.6268e-05,7.67e-06,0.0,0 STARLINK-3511,1 51752U 22016AQ  24089.86218527  .00000767  00000-0  66268-4 0  9995,2 51752  53.2154 255.5906 0001243  84.9754 275.1380 15.08850759117666,6917.848,95.437,540.572,538.853,0.0
51752.0,STARLINK-3511,PAYLOAD,2024-03-30 04:38:28,15.08845308,0.0001563,53.2165,254.1043,91.4611,268.656,-4.6368e-05,-1.026e-05,0.0,0 STARLINK-3511,1 51752U 22016AQ  24090.19338977 -.00001026  00000-0 -46368-4 0  9995,2 51752  53.2165 254.1043 0001563  91.4611 268.6560 15.08845308117712,6917.864,95.437,540.81,538.648,0.0
51752.0,STARLINK-3511,PAYLOAD,2024-03-30 14:10:47,15.08839726,0.0001389,53.2143,252.3193,97.9656,262.1494,4.0483e-06,-2.24e-06,0.0,0 STARLINK-3511,1 51752U 22016AQ  24090.59083101 -.00000224  00000-0  40483-5 0  9996,2 51752  53.2143 252.3193 0001389  97.9656 262.1494 15.08839726116654,6917.881,95.438,540.707,538.785,0.0
51752.0,STARLINK-3511,PAYLOAD,2024-03-30 20:32:19,15.08850643,0.0001519,53.2148,251.1307,92.4105,267.7061,8.4545e-05,1.058e-05,0.0,0 STARLINK-3511,1 51752U 22016AQ  24090.85578212  .00001058  00000-0  84545-4 0  9998,2 51752  53.2148 251.1307 0001519  92.4105 267.7061 15.08850643116693,6917.848,95.437,540.764,538.662,0.0
51752.0,STARLINK-3511,PAYLOAD,2024-03-31 10:50:48,15.08836001,0.000175,53.2156,248.4526,97.2261,262.893,0.00010722,1.419e-05,0.0,0 STARLINK-3511,1 51752U 22016AQ  24091.45194823  .00001419  00000-0  10722-3 0  9993,2 51752  53.2156 248.4526 0001750  97.2261 262.8930 15.08836001117905,6917.893,95.438,540.968,538.547,0.0
51752.0,STARLINK-3511,PAYLOAD,2024-03-31 14:01:34,15.08838123,0.0001847,53.2159,247.8594,94.4911,265.6292,0.00010895,1.446e-05,0.0,0 STARLINK-3511,1 51752U 22016AQ  24091.58442691  .00001446  00000-0  10895-3 0  9997,2 51752  53.2159 247.8594 0001847  94.4911 265.6292 15.08838123116801,6917.886,95.438,541.029,538.473,0.0
51752.0,STARLINK-3511,PAYLOAD,2024-03-31 17:12:20,15.0884073,0.0001645,53.2172,247.2659,87.4837,272.6343,0.00013633,1.882e-05,0.0,0 STARLINK-3511,1 51752U 22016AQ  24091.71690508  .00001882  00000-0  13633-3 0  9991,2 51752  53.2172 247.2659 0001645  87.4837 272.6343 15.08840730116821,6917.878,95.438,540.881,538.605,0.0
51752.0,STARLINK-3511,PAYLOAD,2024-04-01 10:41:36,15.08830332,0.0001554,53.218,243.9946,91.204,268.913,3.8005e-05,3.17e-06,0.0,0 STARLINK-3511,1 51752U 22016AQ  24092.44555692  .00000317  00000-0  38005-4 0  9999,2 51752  53.2180 243.9946 0001554  91.2040 268.9130 15.08830332118056,6917.91,95.438,540.85,538.7,0.0
51752.0,STARLINK-3511,PAYLOAD,2024-04-01 13:52:22,15.08831114,0.0001415,53.2192,243.4014,99.7512,260.364,4.4402e-05,4.19e-06,0.0,0 STARLINK-3511,1 51752U 22016AQ  24092.57803583  .00000419  00000-0  44402-4 0  9999,2 51752  53.2192 243.4014 0001415  99.7512 260.3640 15.08831114116951,6917.908,95.438,540.751,538.794,0.0
51752.0,STARLINK-3511,PAYLOAD,2024-04-01 20:13:54,15.08841285,0.0001318,53.2168,242.208,90.5975,269.5168,3.889e-05,3.31e-06,0.0,0 STARLINK-3511,1 51752U 22016AQ  24092.84299014  .00000331  00000-0  38890-4 0  9994,2 51752  53.2168 242.2080 0001318  90.5975 269.5168 15.08841285118114,6917.876,95.437,540.653,538.83,0.0
51752.0,STARLINK-3511,PAYLOAD,2024-04-02 13:43:09,15.08841017,0.0001274,53.2175,238.94,89.3177,270.7961,4.4991e-05,4.28e-06,0.0,0 STARLINK-3511,1 51752U 22016AQ  24093.57163266  .00000428  00000-0  44991-4 0  9990,2 51752  53.2175 238.9400 0001274  89.3177 270.7961 15.08841017117107,6917.877,95.437,540.624,538.861,0.0
51752.0,STARLINK-3511,PAYLOAD,2024-04-03 02:26:13,15.08844198,0.0001177,53.2171,236.5598,82.8683,277.2442,0.00011269,1.506e-05,0.0,0 STARLINK-3511,1 51752U 22016AQ  24094.10154742  .00001506  00000-0  11269-3 0  9998,2 51752  53.2171 236.5598 0001177  82.8683 277.2442 15.08844198118309,6917.868,95.437,540.547,538.918,0.0
51752.0,STARLINK-3511,PAYLOAD,2024-04-03 16:44:42,15.08836157,0.0001342,53.2171,233.8833,84.8792,275.2354,3.8391e-05,3.23e-06,0.0,0 STARLINK-3511,1 51752U 22016AQ  24094.69771729  .00000323  00000-0  38391-4 0  9994,2 51752  53.2171 233.8833 0001342  84.8792 275.2354 15.08836157118393,6917.892,95.438,540.686,538.829,0.0
51752.0,STARLINK-3511,PAYLOAD,2024-04-04 15:00:06,15.08838983,0.0001252,53.2167,229.7218,93.3392,266.7743,3.9019e-05,3.33e-06,0.0,0 STARLINK-3511,1 51752U 22016AQ  24095.62507628  .00000333  00000-0  39019-4 0  9992,2 51752  53.2167 229.7218 0001252  93.3392 266.7743 15.08838983117418,6917.883,95.438,540.615,538.882,0.0
51752.0,STARLINK-3511,PAYLOAD,2024-04-04 16:35:29,15.08843215,0.0001241,53.217,229.4234,87.8237,272.2898,3.4649e-05,2.64e-06,0.0,0 STARLINK-3511,1 51752U 22016AQ  24095.69131419  .00000264  00000-0  34649-4 0  9997,2 51752  53.2170 229.4234 0001241  87.8237 272.2898 15.08843215117429,6917.871,95.437,540.594,538.877,0.0
51752.0,STARLINK-3511,PAYLOAD,2024-04-05 02:07:48,15.08842187,0.0001153,53.2165,227.6382,84.9859,275.1264,1.1695e-05,-1.02e-06,0.0,0 STARLINK-3511,1 51752U 22016AQ  24096.08875405 -.00000102  00000-0  11695-4 0  9999,2 51752  53.2165 227.6382 0001153  84.9859 275.1264 15.08842187118604,6917.874,95.437,540.536,538.941,0.0
51752.0,STARLINK-3511,PAYLOAD,2024-04-05 14:50:53,15.08837425,0.0001188,53.2164,225.2593,84.8244,275.2883,0.00010716,1.418e-05,0.0,0 STARLINK-3511,1 51752U 22016AQ  24096.61867486  .00001418  00000-0  10716-3 0  9990,2 51752  53.2164 225.2593 0001188  84.8244 275.2883 15.08837425117567,6917.888,95.438,540.575,538.931,0.0
51752.0,STARLINK-3511,PAYLOAD,2024-04-05 18:01:39,15.08847862,0.0001356,53.2176,224.6635,85.5671,274.5477,9.7525e-05,1.265e-05,0.0,0 STARLINK-3511,1 51752U 22016AQ  24096.75114877  .00001265  00000-0  97525-4 0  9998,2 51752  53.2176 224.6635 0001356  85.5671 274.5477 15.08847862117588,6917.856,95.437,540.659,538.783,0.0
51752.0,STARLINK-3511,PAYLOAD,2024-04-06 14:41:40,15.08838431,0.0001355,53.2174,220.8009,84.0555,276.0592,4.4445e-05,4.19e-06,0.0,0 STARLINK-3511,1 51752U 22016AQ  24097.61227663  .00000419  00000-0  44445-4 0  9995,2 51752  53.2174 220.8009 0001355  84.0555 276.0592 15.08838431117715,6917.885,95.438,540.688,538.813,0.0
51752.0,STARLINK-3511,PAYLOAD,2024-04-06 17:52:26,15.08842476,0.0001407,53.2169,220.2048,85.1308,274.9844,2.4471e-05,1.02e-06,0.0,0 STARLINK-3511,1 51752U 22016AQ  24097.74475429  .00000102  00000-0  24471-4 0  9990,2 51752  53.2169 220.2048 0001407  85.1308 274.9844 15.08842476118859,6917.873,95.437,540.711,538.764,0.0
51752.0,STARLINK-3511,PAYLOAD,2024-04-07 08:10:55,15.08832058,0.0001418,53.2162,217.5288,81.9762,278.1391,-2.9151e-05,-7.52e-06,0.0,0 STARLINK-3511,1 51752U 22016AQ  24098.34092409 -.00000752  00000-0 -29151-4 0  9993,2 51752  53.2162 217.5288 0001418  81.9762 278.1391 15.08832058118945,6917.905,95.438,540.751,538.789,0.0
51752.0,STARLINK-3511,PAYLOAD,2024-04-08 08:01:42,15.08836127,0.0001524,53.2149,213.068,99.398,260.7184,3.3639e-05,2.47e-06,0.0,0 STARLINK-3511,1 51752U 22016AQ  24099.33452251  .00000247  00000-0  33639-4 0  9991,2 51752  53.2149 213.0680 0001524  99.3980 260.7184 15.08836127119095,6917.892,95.438,540.812,538.703,0.0
51752.0,STARLINK-3511,PAYLOAD,2024-04-08 14:23:14,15.08844742,0.0001677,53.2142,211.878,94.1277,265.9907,8.9804e-05,1.142e-05,0.0,0 STARLINK-3511,1 51752U 22016AQ  24099.59947559  .00001142  00000-0  89804-4 0  9999,2 51752  53.2142 211.8780 0001677  94.1277 265.9907 15.08844742118019,6917.866,95.437,540.891,538.571,0.0
51752.0,STARLINK-3511,PAYLOAD,2024-04-08 23:55:32,15.08864741,0.0001443,53.217,210.0959,96.7827,263.3329,-0.00021175,-3.659e-05,0.0,0 STARLINK-3511,1 51752U 22016AQ  24099.99690927 -.00003659  00000-0 -21175-3 0  9990,2 51752  53.2170 210.0959 0001443  96.7827 263.3329 15.08864741118076,6917.805,95.436,540.668,538.672,0.0
